QIANFAN-103             
1 66045U 25233N   25319.74551572  .00000899  00000+0  41354-3 0  9997
2 66045  89.0030  65.1304 0018438 109.9603 250.3576 14.20267395  4195
QIANFAN-104             
1 66046U 25233P   25319.74244111  .00001160  00000+0  51918-3 0  9995
2 66046  88.9934  65.1402 0016242 120.5615 239.7181 14.21896566  4191
QIANFAN-105             
1 66047U 25233Q   25319.81329280  .00000505  00000+0  22401-3 0  9992
2 66047  89.0047  65.1563 0020438 116.8502 243.4782 14.21465579  4209
QIANFAN-106             
1 66048U 25233R   25319.74300772  .00001063  00000+0  48568-3 0  9992
2 66048  88.9952  65.1425 0017957 124.4344 235.8547 14.20750195  4193
QIANFAN-107             
1 66049U 25233S   25319.74178127  .00001110  00000+0  49715-3 0  9998
2 66049  88.9977  65.1466 0017588 112.3496 247.9561 14.21837904  4195
QIANFAN-108             
1 66050U 25233T   25319.74308631  .00000743  00000+0  33491-3 0  9990
2 66050  88.9957  65.1456 0016370 123.0906 237.1859 14.21160734  4198
CZ-6A R/B               
1 66051U 25233U   25319.80741340  .00000692  00000+0  14270-3 0  9993
2 66051  89.0301  65.0409 0084489  19.2784 341.1590 14.57027364  4296
2025-234A               
1 66053U 25234A   25319.79962704  .00038294  00000+0  15999-2 0  9990
2 66053  97.4606  25.2626 0014656 188.9265 171.1713 15.23420688  4215
2025-234B               
1 66054U 25234B   25319.81894686  .00009629  00000+0  43035-3 0  9990
2 66054  97.5034  25.3864 0014881 179.7642 180.3604 15.21444365  4211
2025-234C               
1 66055U 25234C   25319.81666917  .00008098  00000+0  36110-3 0  9990
2 66055  97.4558  25.2226 0015554 181.6289 178.4899 15.21563419  4216
2025-234D               
1 66056U 25234D   25319.81057475  .00027768  00000+0  11960-2 0  9994
2 66056  97.4536  25.2227 0015196 182.0296 178.0881 15.22453292  4203
2025-234E               
1 66057U 25234E   25319.78880818  .00771914  00000+0  14994-1 0  9994
2 66057  97.4734  25.6718 0007965 239.1828 120.8637 15.45123836  4233
