CCSDS_OMM_VERS = 2.0
CREATION_DATE  = 
ORIGINATOR     = 

OBJECT_NAME    = QIANFAN-103
OBJECT_ID      = 2025-233N
CENTER_NAME    = EARTH
REF_FRAME      = TEME
TIME_SYSTEM    = UTC
MEAN_ELEMENT_THEORY = SGP/SGP4

EPOCH          = 2025-11-15T17:53:32.558208
MEAN_MOTION    = 14.20267395
ECCENTRICITY   = .0018438
INCLINATION    = 89.0030
RA_OF_ASC_NODE = 65.1304
ARG_OF_PERICENTER = 109.9603
MEAN_ANOMALY   = 250.3576

EPHEMERIS_TYPE = 0
CLASSIFICATION_TYPE = U
NORAD_CAT_ID   = 66045
ELEMENT_SET_NO = 999
REV_AT_EPOCH   = 419
BSTAR          = .41354E-3
MEAN_MOTION_DOT = .899E-5
MEAN_MOTION_DDOT = 0

CCSDS_OMM_VERS = 2.0
CREATION_DATE  = 
ORIGINATOR     = 

OBJECT_NAME    = QIANFAN-104
OBJECT_ID      = 2025-233P
CENTER_NAME    = EARTH
REF_FRAME      = TEME
TIME_SYSTEM    = UTC
MEAN_ELEMENT_THEORY = SGP/SGP4

EPOCH          = 2025-11-15T17:49:06.911904
MEAN_MOTION    = 14.21896566
ECCENTRICITY   = .0016242
INCLINATION    = 88.9934
RA_OF_ASC_NODE = 65.1402
ARG_OF_PERICENTER = 120.5615
MEAN_ANOMALY   = 239.7181

EPHEMERIS_TYPE = 0
CLASSIFICATION_TYPE = U
NORAD_CAT_ID   = 66046
ELEMENT_SET_NO = 999
REV_AT_EPOCH   = 419
BSTAR          = .51918E-3
MEAN_MOTION_DOT = .116E-4
MEAN_MOTION_DDOT = 0

CCSDS_OMM_VERS = 2.0
CREATION_DATE  = 
ORIGINATOR     = 

OBJECT_NAME    = QIANFAN-105
OBJECT_ID      = 2025-233Q
CENTER_NAME    = EARTH
REF_FRAME      = TEME
TIME_SYSTEM    = UTC
MEAN_ELEMENT_THEORY = SGP/SGP4

EPOCH          = 2025-11-15T19:31:08.497920
MEAN_MOTION    = 14.21465579
ECCENTRICITY   = .0020438
INCLINATION    = 89.0047
RA_OF_ASC_NODE = 65.1563
ARG_OF_PERICENTER = 116.8502
MEAN_ANOMALY   = 243.4782

EPHEMERIS_TYPE = 0
CLASSIFICATION_TYPE = U
NORAD_CAT_ID   = 66047
ELEMENT_SET_NO = 999
REV_AT_EPOCH   = 420
BSTAR          = .22401E-3
MEAN_MOTION_DOT = .505E-5
MEAN_MOTION_DDOT = 0

CCSDS_OMM_VERS = 2.0
CREATION_DATE  = 
ORIGINATOR     = 

OBJECT_NAME    = QIANFAN-106
OBJECT_ID      = 2025-233R
CENTER_NAME    = EARTH
REF_FRAME      = TEME
TIME_SYSTEM    = UTC
MEAN_ELEMENT_THEORY = SGP/SGP4

EPOCH          = 2025-11-15T17:49:55.867008
MEAN_MOTION    = 14.20750195
ECCENTRICITY   = .0017957
INCLINATION    = 88.9952
RA_OF_ASC_NODE = 65.1425
ARG_OF_PERICENTER = 124.4344
MEAN_ANOMALY   = 235.8547

EPHEMERIS_TYPE = 0
CLASSIFICATION_TYPE = U
NORAD_CAT_ID   = 66048
ELEMENT_SET_NO = 999
REV_AT_EPOCH   = 419
BSTAR          = .48568E-3
MEAN_MOTION_DOT = .1063E-4
MEAN_MOTION_DDOT = 0

CCSDS_OMM_VERS = 2.0
CREATION_DATE  = 
ORIGINATOR     = 

OBJECT_NAME    = QIANFAN-107
OBJECT_ID      = 2025-233S
CENTER_NAME    = EARTH
REF_FRAME      = TEME
TIME_SYSTEM    = UTC
MEAN_ELEMENT_THEORY = SGP/SGP4

EPOCH          = 2025-11-15T17:48:09.901728
MEAN_MOTION    = 14.21837904
ECCENTRICITY   = .0017588
INCLINATION    = 88.9977
RA_OF_ASC_NODE = 65.1466
ARG_OF_PERICENTER = 112.3496
MEAN_ANOMALY   = 247.9561

EPHEMERIS_TYPE = 0
CLASSIFICATION_TYPE = U
NORAD_CAT_ID   = 66049
ELEMENT_SET_NO = 999
REV_AT_EPOCH   = 419
BSTAR          = .49715E-3
MEAN_MOTION_DOT = .111E-4
MEAN_MOTION_DDOT = 0

CCSDS_OMM_VERS = 2.0
CREATION_DATE  = 
ORIGINATOR     = 

OBJECT_NAME    = QIANFAN-108
OBJECT_ID      = 2025-233T
CENTER_NAME    = EARTH
REF_FRAME      = TEME
TIME_SYSTEM    = UTC
MEAN_ELEMENT_THEORY = SGP/SGP4

EPOCH          = 2025-11-15T17:50:02.657184
MEAN_MOTION    = 14.21160734
ECCENTRICITY   = .001637
INCLINATION    = 88.9957
RA_OF_ASC_NODE = 65.1456
ARG_OF_PERICENTER = 123.0906
MEAN_ANOMALY   = 237.1859

EPHEMERIS_TYPE = 0
CLASSIFICATION_TYPE = U
NORAD_CAT_ID   = 66050
ELEMENT_SET_NO = 999
REV_AT_EPOCH   = 419
BSTAR          = .33491E-3
MEAN_MOTION_DOT = .743E-5
MEAN_MOTION_DDOT = 0

CCSDS_OMM_VERS = 2.0
CREATION_DATE  = 
ORIGINATOR     = 

OBJECT_NAME    = CZ-6A R/B
OBJECT_ID      = 2025-233U
CENTER_NAME    = EARTH
REF_FRAME      = TEME
TIME_SYSTEM    = UTC
MEAN_ELEMENT_THEORY = SGP/SGP4

EPOCH          = 2025-11-15T19:22:40.517760
MEAN_MOTION    = 14.57027364
ECCENTRICITY   = .0084489
INCLINATION    = 89.0301
RA_OF_ASC_NODE = 65.0409
ARG_OF_PERICENTER = 19.2784
MEAN_ANOMALY   = 341.1590

EPHEMERIS_TYPE = 0
CLASSIFICATION_TYPE = U
NORAD_CAT_ID   = 66051
ELEMENT_SET_NO = 999
REV_AT_EPOCH   = 429
BSTAR          = .1427E-3
MEAN_MOTION_DOT = .692E-5
MEAN_MOTION_DDOT = 0

CCSDS_OMM_VERS = 2.0
CREATION_DATE  = 
ORIGINATOR     = 

OBJECT_NAME    = 2025-234A
OBJECT_ID      = 2025-234A
CENTER_NAME    = EARTH
REF_FRAME      = TEME
TIME_SYSTEM    = UTC
MEAN_ELEMENT_THEORY = SGP/SGP4

EPOCH          = 2025-11-15T19:11:27.776256
MEAN_MOTION    = 15.23420688
ECCENTRICITY   = .0014656
INCLINATION    = 97.4606
RA_OF_ASC_NODE = 25.2626
ARG_OF_PERICENTER = 188.9265
MEAN_ANOMALY   = 171.1713

EPHEMERIS_TYPE = 0
CLASSIFICATION_TYPE = U
NORAD_CAT_ID   = 66053
ELEMENT_SET_NO = 999
REV_AT_EPOCH   = 421
BSTAR          = .15999E-2
MEAN_MOTION_DOT = .38294E-3
MEAN_MOTION_DDOT = 0

CCSDS_OMM_VERS = 2.0
CREATION_DATE  = 
ORIGINATOR     = 

OBJECT_NAME    = 2025-234B
OBJECT_ID      = 2025-234B
CENTER_NAME    = EARTH
REF_FRAME      = TEME
TIME_SYSTEM    = UTC
MEAN_ELEMENT_THEORY = SGP/SGP4

EPOCH          = 2025-11-15T19:39:17.008704
MEAN_MOTION    = 15.21444365
ECCENTRICITY   = .0014881
INCLINATION    = 97.5034
RA_OF_ASC_NODE = 25.3864
ARG_OF_PERICENTER = 179.7642
MEAN_ANOMALY   = 180.3604

EPHEMERIS_TYPE = 0
CLASSIFICATION_TYPE = U
NORAD_CAT_ID   = 66054
ELEMENT_SET_NO = 999
REV_AT_EPOCH   = 421
BSTAR          = .43035E-3
MEAN_MOTION_DOT = .9629E-4
MEAN_MOTION_DDOT = 0

CCSDS_OMM_VERS = 2.0
CREATION_DATE  = 
ORIGINATOR     = 

OBJECT_NAME    = 2025-234C
OBJECT_ID      = 2025-234C
CENTER_NAME    = EARTH
REF_FRAME      = TEME
TIME_SYSTEM    = UTC
MEAN_ELEMENT_THEORY = SGP/SGP4

EPOCH          = 2025-11-15T19:36:00.216288
MEAN_MOTION    = 15.21563419
ECCENTRICITY   = .0015554
INCLINATION    = 97.4558
RA_OF_ASC_NODE = 25.2226
ARG_OF_PERICENTER = 181.6289
MEAN_ANOMALY   = 178.4899

EPHEMERIS_TYPE = 0
CLASSIFICATION_TYPE = U
NORAD_CAT_ID   = 66055
ELEMENT_SET_NO = 999
REV_AT_EPOCH   = 421
BSTAR          = .3611E-3
MEAN_MOTION_DOT = .8098E-4
MEAN_MOTION_DDOT = 0

CCSDS_OMM_VERS = 2.0
CREATION_DATE  = 
ORIGINATOR     = 

OBJECT_NAME    = 2025-234D
OBJECT_ID      = 2025-234D
CENTER_NAME    = EARTH
REF_FRAME      = TEME
TIME_SYSTEM    = UTC
MEAN_ELEMENT_THEORY = SGP/SGP4

EPOCH          = 2025-11-15T19:27:13.658400
MEAN_MOTION    = 15.22453292
ECCENTRICITY   = .0015196
INCLINATION    = 97.4536
RA_OF_ASC_NODE = 25.2227
ARG_OF_PERICENTER = 182.0296
MEAN_ANOMALY   = 178.0881

EPHEMERIS_TYPE = 0
CLASSIFICATION_TYPE = U
NORAD_CAT_ID   = 66056
ELEMENT_SET_NO = 999
REV_AT_EPOCH   = 420
BSTAR          = .1196E-2
MEAN_MOTION_DOT = .27768E-3
MEAN_MOTION_DDOT = 0

CCSDS_OMM_VERS = 2.0
CREATION_DATE  = 
ORIGINATOR     = 

OBJECT_NAME    = 2025-234E
OBJECT_ID      = 2025-234E
CENTER_NAME    = EARTH
REF_FRAME      = TEME
TIME_SYSTEM    = UTC
MEAN_ELEMENT_THEORY = SGP/SGP4

EPOCH          = 2025-11-15T18:55:53.026752
MEAN_MOTION    = 15.45123836
ECCENTRICITY   = .0007965
INCLINATION    = 97.4734
RA_OF_ASC_NODE = 25.6718
ARG_OF_PERICENTER = 239.1828
MEAN_ANOMALY   = 120.8637

EPHEMERIS_TYPE = 0
CLASSIFICATION_TYPE = U
NORAD_CAT_ID   = 66057
ELEMENT_SET_NO = 999
REV_AT_EPOCH   = 423
BSTAR          = .14994E-1
MEAN_MOTION_DOT = .771914E-2
MEAN_MOTION_DDOT = 0

